start=new Date('2022-02-01T00:00:00.000Z').valueOf();
sats=[{"PERIAPSIS":"402.251","LAUNCH_DATE":"2021-09-14","REV_AT_EPOCH":"368","EPHEMERIS_TYPE":"0","TLE_LINE1":"1 49163U 21082AK  22031.91668981 -.00657547  00000-0 -10929-1 0  9990","APOAPSIS":"407.003","BSTAR":"-0.01092900000000","SEMIMAJOR_AXIS":"6782.762","RCS_SIZE":"LARGE","MEAN_MOTION_DDOT":"0.0000000000000","RA_OF_ASC_NODE":"94.2551","TIME_SYSTEM":"UTC","PERIOD":"92.655","GP_ID":"195055835","DECAY_DATE":null,"ECCENTRICITY":"0.00035030","MEAN_MOTION":"15.54149735","MEAN_MOTION_DOT":"-0.00657547","EPOCH":"2022-01-31T22:00:01.999584","MEAN_ELEMENT_THEORY":"SGP4","INCLINATION":"70.0000","OBJECT_TYPE":"PAYLOAD","COUNTRY_CODE":"US","NORAD_CAT_ID":"49163","CENTER_NAME":"EARTH","OBJECT_NAME":"STARLINK-3088","REF_FRAME":"TEME","SITE":"AFWTR","TLE_LINE2":"2 49163  70.0000  94.2551 0003503 274.3878  79.3972 15.54149735  3686","ARG_OF_PERICENTER":"274.3878","OBJECT_ID":"2021-082AK","CLASSIFICATION_TYPE":"U","FILE":"3288814","ELEMENT_SET_NO":"999","MEAN_ANOMALY":"79.3972"},{"RCS_SIZE":"LARGE","MEAN_MOTION_DDOT":"0.0000000000000","RA_OF_ASC_NODE":"94.2466","PERIOD":"92.644","TIME_SYSTEM":"UTC","DECAY_DATE":null,"GP_ID":"195055085","PERIAPSIS":"401.702","LAUNCH_DATE":"2021-09-14","REV_AT_EPOCH":"368","TLE_LINE1":"1 49164U 21082AL  22031.91668981 -.00656843  00000-0 -10844-1 0  9995","EPHEMERIS_TYPE":"0","APOAPSIS":"406.498","BSTAR":"-0.01084400000000","SEMIMAJOR_AXIS":"6782.235","REF_FRAME":"TEME","TLE_LINE2":"2 49164  70.0000  94.2466 0003536 275.8803  95.7604 15.54330958  3685","SITE":"AFWTR","OBJECT_ID":"2021-082AL","ARG_OF_PERICENTER":"275.8803","FILE":"3288814","CLASSIFICATION_TYPE":"U","ELEMENT_SET_NO":"999","MEAN_ANOMALY":"95.7604","ECCENTRICITY":"0.00035360","MEAN_MOTION":"15.54330958","MEAN_MOTION_DOT":"-0.00656843","MEAN_ELEMENT_THEORY":"SGP4","INCLINATION":"70.0000","EPOCH":"2022-01-31T22:00:01.999584","COUNTRY_CODE":"US","OBJECT_TYPE":"PAYLOAD","NORAD_CAT_ID":"49164","OBJECT_NAME":"STARLINK-3106","CENTER_NAME":"EARTH"},{"EPHEMERIS_TYPE":"0","TLE_LINE1":"1 49165U 21082AM  22031.91668981 -.00026071  00000-0 -21851-2 0  9991","REV_AT_EPOCH":"357","LAUNCH_DATE":"2021-09-14","PERIAPSIS":"569.669","SEMIMAJOR_AXIS":"6950.186","BSTAR":"-0.00218510000000","APOAPSIS":"574.434","RA_OF_ASC_NODE":"110.8807","MEAN_MOTION_DDOT":"0.0000000000000","RCS_SIZE":"LARGE","DECAY_DATE":null,"GP_ID":"195054836","TIME_SYSTEM":"UTC","PERIOD":"96.107","EPOCH":"2022-01-31T22:00:01.999584","MEAN_ELEMENT_THEORY":"SGP4","INCLINATION":"70.0001","MEAN_MOTION_DOT":"-0.00026071","MEAN_MOTION":"14.98332213","ECCENTRICITY":"0.00034280","CENTER_NAME":"EARTH","OBJECT_NAME":"STARLINK-3052","NORAD_CAT_ID":"49165","OBJECT_TYPE":"PAYLOAD","COUNTRY_CODE":"US","ARG_OF_PERICENTER":"276.0122","OBJECT_ID":"2021-082AM","SITE":"AFWTR","TLE_LINE2":"2 49165  70.0001 110.8807 0003428 276.0122 123.8547 14.98332213  3578","REF_FRAME":"TEME","MEAN_ANOMALY":"123.8547","ELEMENT_SET_NO":"999","CLASSIFICATION_TYPE":"U","FILE":"3288814"},{"SITE":"AFWTR","TLE_LINE2":"2 49166  70.0000  94.2438 0003506 271.5021  97.4197 15.54315951  3680","REF_FRAME":"TEME","ARG_OF_PERICENTER":"271.5021","OBJECT_ID":"2021-082AN","ELEMENT_SET_NO":"999","CLASSIFICATION_TYPE":"U","FILE":"3288814","MEAN_ANOMALY":"97.4197","MEAN_MOTION":"15.54315951","ECCENTRICITY":"0.00035060","EPOCH":"2022-01-31T22:00:01.999584","MEAN_ELEMENT_THEORY":"SGP4","INCLINATION":"70.0000","MEAN_MOTION_DOT":"-0.00656838","OBJECT_TYPE":"PAYLOAD","COUNTRY_CODE":"US","CENTER_NAME":"EARTH","OBJECT_NAME":"STARLINK-3089","NORAD_CAT_ID":"49166","RCS_SIZE":"LARGE","RA_OF_ASC_NODE":"94.2438","MEAN_MOTION_DDOT":"0.0000000000000","TIME_SYSTEM":"UTC","PERIOD":"92.645","GP_ID":"195056087","DECAY_DATE":null,"LAUNCH_DATE":"2021-09-14","PERIAPSIS":"401.766","EPHEMERIS_TYPE":"0","TLE_LINE1":"1 49166U 21082AN  22031.91668981 -.00656838  00000-0 -10850-1 0  9998","REV_AT_EPOCH":"368","BSTAR":"-0.01085000000000","APOAPSIS":"406.522","SEMIMAJOR_AXIS":"6782.279"},{"MEAN_MOTION_DOT":"-0.00025877","INCLINATION":"69.9997","MEAN_ELEMENT_THEORY":"SGP4","EPOCH":"2022-01-31T22:00:01.999584","ECCENTRICITY":"0.00031880","MEAN_MOTION":"14.98322780","NORAD_CAT_ID":"49167","OBJECT_NAME":"STARLINK-3054","CENTER_NAME":"EARTH","COUNTRY_CODE":"US","OBJECT_TYPE":"PAYLOAD","OBJECT_ID":"2021-082AP","ARG_OF_PERICENTER":"274.6530","REF_FRAME":"TEME","TLE_LINE2":"2 49167  69.9997 110.8658 0003188 274.6530 150.9659 14.98322780  3578","SITE":"AFWTR","MEAN_ANOMALY":"150.9659","FILE":"3288814","CLASSIFICATION_TYPE":"U","ELEMENT_SET_NO":"999","REV_AT_EPOCH":"357","TLE_LINE1":"1 49167U 21082AP  22031.91668981 -.00025877  00000-0 -21693-2 0  9990","EPHEMERIS_TYPE":"0","PERIAPSIS":"569.864","LAUNCH_DATE":"2021-09-14","SEMIMAJOR_AXIS":"6950.215","APOAPSIS":"574.296","BSTAR":"-0.00216930000000","MEAN_MOTION_DDOT":"0.0000000000000","RA_OF_ASC_NODE":"110.8658","RCS_SIZE":"LARGE","GP_ID":"195056335","DECAY_DATE":null,"PERIOD":"96.107","TIME_SYSTEM":"UTC"},{"BSTAR":"-0.01075100000000","APOAPSIS":"405.897","SEMIMAJOR_AXIS":"6781.622","LAUNCH_DATE":"2021-09-14","PERIAPSIS":"401.078","TLE_LINE1":"1 49168U 21082AQ  22031.91668981 -.00656310  00000-0 -10751-1 0  9995","EPHEMERIS_TYPE":"0","REV_AT_EPOCH":"368","PERIOD":"92.632","TIME_SYSTEM":"UTC","GP_ID":"195054586","DECAY_DATE":null,"RCS_SIZE":"LARGE","RA_OF_ASC_NODE":"94.2415","MEAN_MOTION_DDOT":"0.0000000000000","COUNTRY_CODE":"US","OBJECT_TYPE":"PAYLOAD","OBJECT_NAME":"STARLINK-3101","CENTER_NAME":"EARTH","NORAD_CAT_ID":"49168","MEAN_MOTION":"15.54541719","ECCENTRICITY":"0.00035530","INCLINATION":"70.0000","MEAN_ELEMENT_THEORY":"SGP4","EPOCH":"2022-01-31T22:00:01.999584","MEAN_MOTION_DOT":"-0.00656310","ELEMENT_SET_NO":"999","FILE":"3288814","CLASSIFICATION_TYPE":"U","MEAN_ANOMALY":"109.3461","TLE_LINE2":"2 49168  70.0000  94.2415 0003553 276.9599 109.3461 15.54541719  3688","SITE":"AFWTR","REF_FRAME":"TEME","OBJECT_ID":"2021-082AQ","ARG_OF_PERICENTER":"276.9599"},{"ECCENTRICITY":"0.00035290","MEAN_MOTION":"15.54443728","MEAN_MOTION_DOT":"-0.00656546","EPOCH":"2022-01-31T22:00:01.999584","MEAN_ELEMENT_THEORY":"SGP4","INCLINATION":"70.0000","OBJECT_TYPE":"PAYLOAD","COUNTRY_CODE":"US","NORAD_CAT_ID":"49169","CENTER_NAME":"EARTH","OBJECT_NAME":"STARLINK-3046","REF_FRAME":"TEME","SITE":"AFWTR","TLE_LINE2":"2 49169  70.0000  94.2450 0003529 275.2664 102.9481 15.54443728  3688","ARG_OF_PERICENTER":"275.2664","OBJECT_ID":"2021-082AR","CLASSIFICATION_TYPE":"U","FILE":"3288814","ELEMENT_SET_NO":"999","MEAN_ANOMALY":"102.9481","PERIAPSIS":"401.379","LAUNCH_DATE":"2021-09-14","REV_AT_EPOCH":"368","EPHEMERIS_TYPE":"0","TLE_LINE1":"1 49169U 21082AR  22031.91668981 -.00656546  00000-0 -10794-1 0  9994","APOAPSIS":"406.165","BSTAR":"-0.01079400000000","SEMIMAJOR_AXIS":"6781.907","RCS_SIZE":"LARGE","MEAN_MOTION_DDOT":"0.0000000000000","RA_OF_ASC_NODE":"94.2450","TIME_SYSTEM":"UTC","PERIOD":"92.638","DECAY_DATE":null,"GP_ID":"195055336"},{"MEAN_MOTION":"14.98329651","ECCENTRICITY":"0.00033910","EPOCH":"2022-01-31T22:00:01.999584","MEAN_ELEMENT_THEORY":"SGP4","INCLINATION":"70.0008","MEAN_MOTION_DOT":"-0.00025484","OBJECT_TYPE":"PAYLOAD","COUNTRY_CODE":"US","CENTER_NAME":"EARTH","OBJECT_NAME":"STARLINK-3074","NORAD_CAT_ID":"49170","SITE":"AFWTR","TLE_LINE2":"2 49170  70.0008 110.8700 0003391 276.8132 288.4430 14.98329651  3572","REF_FRAME":"TEME","ARG_OF_PERICENTER":"276.8132","OBJECT_ID":"2021-082AS","ELEMENT_SET_NO":"999","CLASSIFICATION_TYPE":"U","FILE":"3288814","MEAN_ANOMALY":"288.4430","LAUNCH_DATE":"2021-09-14","PERIAPSIS":"569.702","EPHEMERIS_TYPE":"0","TLE_LINE1":"1 49170U 21082AS  22031.91668981 -.00025484  00000-0 -21357-2 0  9995","REV_AT_EPOCH":"357","BSTAR":"-0.00213570000000","APOAPSIS":"574.416","SEMIMAJOR_AXIS":"6950.194","RCS_SIZE":"LARGE","RA_OF_ASC_NODE":"110.8700","MEAN_MOTION_DDOT":"0.0000000000000","PERIOD":"96.107","TIME_SYSTEM":"UTC","GP_ID":"195055588","DECAY_DATE":null},{"MEAN_MOTION_DDOT":"0.0000000000000","RA_OF_ASC_NODE":"110.8721","RCS_SIZE":"LARGE","DECAY_DATE":null,"GP_ID":"195055836","PERIOD":"96.107","TIME_SYSTEM":"UTC","REV_AT_EPOCH":"357","TLE_LINE1":"1 49171U 21082AT  22031.91668981 -.00026002  00000-0 -21797-2 0  9991","EPHEMERIS_TYPE":"0","PERIAPSIS":"569.717","LAUNCH_DATE":"2021-09-14","SEMIMAJOR_AXIS":"6950.210","APOAPSIS":"574.433","BSTAR":"-0.00217970000000","OBJECT_ID":"2021-082AT","ARG_OF_PERICENTER":"275.0834","REF_FRAME":"TEME","TLE_LINE2":"2 49171  70.0014 110.8721 0003393 275.0834 187.3284 14.98324561  3574","SITE":"AFWTR","MEAN_ANOMALY":"187.3284","FILE":"3288814","CLASSIFICATION_TYPE":"U","ELEMENT_SET_NO":"999","MEAN_MOTION_DOT":"-0.00026002","INCLINATION":"70.0014","MEAN_ELEMENT_THEORY":"SGP4","EPOCH":"2022-01-31T22:00:01.999584","ECCENTRICITY":"0.00033930","MEAN_MOTION":"14.98324561","NORAD_CAT_ID":"49171","OBJECT_NAME":"STARLINK-3107","CENTER_NAME":"EARTH","COUNTRY_CODE":"US","OBJECT_TYPE":"PAYLOAD"},{"SEMIMAJOR_AXIS":"6785.413","APOAPSIS":"409.643","BSTAR":"-0.01130000000000","REV_AT_EPOCH":"368","EPHEMERIS_TYPE":"0","TLE_LINE1":"1 49172U 21082AU  22031.91668981 -.00657652  00000-0 -11300-1 0  9991","PERIAPSIS":"404.912","LAUNCH_DATE":"2021-09-14","GP_ID":"195055086","DECAY_DATE":null,"TIME_SYSTEM":"UTC","PERIOD":"92.709","MEAN_MOTION_DDOT":"0.0000000000000","RA_OF_ASC_NODE":"94.2384","RCS_SIZE":"LARGE","NORAD_CAT_ID":"49172","CENTER_NAME":"EARTH","OBJECT_NAME":"STARLINK-3091","OBJECT_TYPE":"PAYLOAD","COUNTRY_CODE":"US","MEAN_MOTION_DOT":"-0.00657652","EPOCH":"2022-01-31T22:00:01.999584","INCLINATION":"70.0000","MEAN_ELEMENT_THEORY":"SGP4","ECCENTRICITY":"0.00034860","MEAN_MOTION":"15.53239257","MEAN_ANOMALY":"68.1088","CLASSIFICATION_TYPE":"U","FILE":"3288814","ELEMENT_SET_NO":"999","ARG_OF_PERICENTER":"273.7037","OBJECT_ID":"2021-082AU","REF_FRAME":"TEME","SITE":"AFWTR","TLE_LINE2":"2 49172  70.0000  94.2384 0003486 273.7037  68.1088 15.53239257  3682"}];
